NORAD_CAT_ID,OBJECT_NAME,OBJECT_TYPE,EPOCH,MEAN_MOTION,ECCENTRICITY,INCLINATION,RA_OF_ASC_NODE,ARG_OF_PERICENTER,MEAN_ANOMALY,BSTAR,MEAN_MOTION_DOT,MEAN_MOTION_DDOT,TLE_LINE0,TLE_LINE1,TLE_LINE2,SEMIMAJOR_AXIS,PERIOD,APOGEE,PERIGEE,DECAYED
52479.0,STARLINK-3878,PAYLOAD,2022-07-29 06:00:00,15.37507721,0.0001683,53.2174,213.5951,41.2501,237.9775,-0.0311,-0.01066452,0.0,0 STARLINK-3878,1 52479U 22049AE  22210.25001157 -.01066452  00000-0 -31100-1 0  9994,2 52479  53.2174 213.5951 0001683  41.2501 237.9775 15.37507721 13347,6831.619000000002,93.658,454.634,452.334,0.0
52479.0,STARLINK-3878,PAYLOAD,2022-07-29 14:00:01,15.36751889,0.0001505,53.2172,212.0316,41.7056,283.1003,-0.0320709999999999,-0.01072437,0.0,0 STARLINK-3878,1 52479U 22049AE  22210.58334491 -.01072437  00000-0 -32071-1 0  9998,2 52479  53.2172 212.0316 0001505  41.7056 283.1003 15.36751889  1302,6833.859,93.704,456.752,454.695,0.0
52479.0,STARLINK-3878,PAYLOAD,2022-07-29 22:00:00,15.35987824,0.0001556,53.2172,210.4685,38.3896,331.086,-0.03265,-0.01065695,0.0,0 STARLINK-3878,1 52479U 22049AE  22210.91667824 -.01065695  00000-0 -32650-1 0  9995,2 52479  53.2172 210.4685 0001556  38.3896 331.0860 15.35987824  1306,6836.125,93.751,459.054,456.926,0.0
52479.0,STARLINK-3878,PAYLOAD,2022-07-30 06:00:00,15.35231239,0.0001831,53.2175,208.9106,32.8145,20.4128,-0.033585,-0.01069521,0.0,0 STARLINK-3878,1 52479U 22049AE  22211.25001157 -.01069521  00000-0 -33585-1 0  9994,2 52479  53.2175 208.9106 0001831  32.8145  20.4128 15.35231239 13492,6838.371,93.797,461.48800000000006,458.984,0.0
52479.0,STARLINK-3878,PAYLOAD,2022-07-30 14:00:01,15.34470713,0.0001621999999999,53.2172,207.3524,42.1006,53.9689,-0.034342,-0.01067395,0.0,0 STARLINK-3878,1 52479U 22049AE  22211.58334491 -.01067395  00000-0 -34342-1 0  9999,2 52479  53.2172 207.3524 0001622  42.1006  53.9689 15.34470713  1305,6840.63,93.843,463.605,461.386,0.0
52479.0,STARLINK-3878,PAYLOAD,2022-07-30 22:00:00,15.33711328,0.0001664,53.2174,205.7949,44.6631,93.3361,-0.035227,-0.01068576,0.0,0 STARLINK-3878,1 52479U 22049AE  22211.91667824 -.01068576  00000-0 -35227-1 0  9990,2 52479  53.2174 205.7949 0001664  44.6631  93.3361 15.33711328  1301,6842.888000000001,93.89,465.892,463.614,0.0
52479.0,STARLINK-3878,PAYLOAD,2022-07-31 06:00:02,15.32950561,0.0001936,53.2174,204.2423,38.7637,140.3148,-0.035987,-0.01065858,0.0,0 STARLINK-3878,1 52479U 22049AE  22212.25002315 -.01065858  00000-0 -35987-1 0  9999,2 52479  53.2174 204.2423 0001936  38.7637 140.3148 15.32950561 13643,6845.151999999999,93.936,468.342,465.691,0.0
52479.0,STARLINK-3878,PAYLOAD,2022-07-31 14:00:01,15.32192988,0.0001610999999999,53.2172,202.6894,49.9203,169.1975,-0.0369769999999999,-0.01068904,0.0,0 STARLINK-3878,1 52479U 22049AE  22212.58334491 -.01068904  00000-0 -36977-1 0  9993,2 52479  53.2172 202.6894 0001611  49.9203 169.1975 15.32192988  1306,6847.408,93.983,470.376,468.17,0.0
52479.0,STARLINK-3878,PAYLOAD,2022-07-31 22:00:00,15.31431877,0.0001558,53.2174,201.1372,49.7418,208.5681,-0.037775,-0.01066338,0.0,0 STARLINK-3878,1 52479U 22049AE  22212.91667824 -.01066338  00000-0 -37775-1 0  9995,2 52479  53.2174 201.1372 0001558  49.7418 208.5681 15.31431877  1303,6849.676,94.03,472.609,470.474,0.0
52479.0,STARLINK-3878,PAYLOAD,2022-08-01 06:00:00,15.30672694,0.0001701,53.2174,199.5903,40.6275,255.9593,-0.038687,-0.01066441,0.0,0 STARLINK-3878,1 52479U 22049AE  22213.25001157 -.01066441  00000-0 -38687-1 0  9992,2 52479  53.2174 199.5903 0001701  40.6275 255.9593 15.30672694 13803,6851.941,94.076,474.972,472.641,0.0
52479.0,STARLINK-3878,PAYLOAD,2022-08-01 14:00:01,15.29915011,0.0001505,53.2172,198.0425,43.4015,290.5508,-0.039748,-0.01069768,0.0,0 STARLINK-3878,1 52479U 22049AE  22213.58334491 -.01069768  00000-0 -39748-1 0  9992,2 52479  53.2172 198.0425 0001505  43.4015 290.5508 15.29915011  1303,6854.203,94.123,477.1,475.037,0.0
52479.0,STARLINK-3878,PAYLOAD,2022-08-01 22:00:00,15.29151814,0.0001526,53.2174,196.496,42.7542,327.6527,-0.040436,-0.01063384,0.0,0 STARLINK-3878,1 52479U 22049AE  22213.91667824 -.01063384  00000-0 -40436-1 0  9992,2 52479  53.2174 196.4960 0001526  42.7542 327.6527 15.29151814  1307,6856.484,94.17,479.395,477.302,0.0
52479.0,STARLINK-3878,PAYLOAD,2022-08-02 06:00:02,15.28395992,0.0001710999999999,53.2174,194.9542,38.3168,7.6915,-0.041638,-0.01069248,0.0,0 STARLINK-3878,1 52479U 22049AE  22214.25002315 -.01069248  00000-0 -41638-1 0  9998,2 52479  53.2174 194.9542 0001711  38.3168   7.6915 15.28395992 13953,6858.744000000002,94.216,481.782,479.435,0.0
52479.0,STARLINK-3878,PAYLOAD,2022-08-02 14:00:01,15.27634614,0.0001709,53.2172,193.4118,38.6537,41.9198,-0.042488,-0.01066112,0.0,0 STARLINK-3878,1 52479U 22049AE  22214.58334491 -.01066112  00000-0 -42488-1 0  9998,2 52479  53.2172 193.4118 0001709  38.6537  41.9198 15.27634614  1300,6861.023,94.263,484.06,481.715,0.0
52479.0,STARLINK-3878,PAYLOAD,2022-08-03 06:00:00,15.26115782,0.000195,53.2174,190.3344,38.7174,108.3723,-0.044498,-0.01066018,0.0,0 STARLINK-3878,1 52479U 22049AE  22215.25001157 -.01066018  00000-0 -44498-1 0  9991,2 52479  53.2174 190.3344 0001950  38.7174 108.3723 15.26115782 14108,6865.574000000001,94.357,488.778,486.1,0.0
52479.0,STARLINK-3878,PAYLOAD,2022-08-03 14:00:01,15.25356125,0.0001671,53.2173,188.7971,48.94,130.0401,-0.045522,-0.01065684,0.0,0 STARLINK-3878,1 52479U 22049AE  22215.58334491 -.01065684  00000-0 -45522-1 0  9994,2 52479  53.2173 188.7971 0001671  48.9400 130.0401 15.25356125  1309,6867.853,94.404,490.866,488.571,0.0
52479.0,STARLINK-3878,PAYLOAD,2022-08-03 22:00:01,15.2459596,0.0001684,53.2175,187.2615,49.5759,160.4448,-0.046487,-0.01063764,0.0,0 STARLINK-3878,1 52479U 22049AE  22215.91668981 -.01063764  00000-0 -46487-1 0  9993,2 52479  53.2175 187.2615 0001684  49.5759 160.4448 15.24595960  1307,6870.136,94.451,493.158,490.844,0.0
52479.0,STARLINK-3878,PAYLOAD,2022-08-04 06:00:00,15.2383604,0.00018,53.2174,185.7305,44.0967,195.9239,-0.047541,-0.01063384,0.0,0 STARLINK-3878,1 52479U 22049AE  22216.25001157 -.01063384  00000-0 -47541-1 0  9997,2 52479  53.2174 185.7305 0001800  44.0967 195.9239 15.23836040 14251,6872.42,94.498,495.522,493.048,0.0
52479.0,STARLINK-3878,PAYLOAD,2022-08-04 14:00:01,15.2307869,0.0001568,53.2173,184.1985,49.2723,219.9,-0.048838,-0.01067504,0.0,0 STARLINK-3878,1 52479U 22049AE  22216.58334491 -.01067504  00000-0 -48838-1 0  9991,2 52479  53.2173 184.1985 0001568  49.2723 219.9000 15.23078690  1309,6874.698,94.545,497.641,495.485,0.0
52479.0,STARLINK-3878,PAYLOAD,2022-08-04 22:00:00,15.22316487,0.0001616,53.2176,182.6683,45.0276,252.3845,-0.049666,-0.01061765,0.0,0 STARLINK-3878,1 52479U 22049AE  22216.91667824 -.01061765  00000-0 -49666-1 0  9990,2 52479  53.2176 182.6683 0001616  45.0276 252.3845 15.22316487  1307,6876.9919999999975,94.593,499.969,497.746,0.0
52479.0,STARLINK-3878,PAYLOAD,2022-08-05 06:00:02,15.215585,0.0001764999999999,53.2175,181.1427,37.5676,287.2326,-0.050952,-0.0106481,0.0,0 STARLINK-3878,1 52479U 22049AE  22217.25002315 -.01064810  00000-0 -50952-1 0  9990,2 52479  53.2175 181.1427 0001765  37.5676 287.2326 15.21558500 14411,6879.276,94.64,502.355,499.927,0.0
52479.0,STARLINK-3878,PAYLOAD,2022-08-05 14:00:01,15.207998000000002,0.0001455,53.2174,179.6158,47.3078,303.9067,-0.052223,-0.01066943,0.0,0 STARLINK-3878,1 52479U 22049AE  22217.58335648 -.01066943  00000-0 -52223-1 0  9996,2 52479  53.2174 179.6158 0001455  47.3078 303.9067 15.20799800  1305,6881.564,94.687,504.43,502.42800000000005,0.0
52479.0,STARLINK-3878,PAYLOAD,2022-08-05 22:00:00,15.20037384,0.0001582,53.2176,178.0914,42.8442,333.8088,-0.053077,-0.01060934,0.0,0 STARLINK-3878,1 52479U 22049AE  22217.91667824 -.01060934  00000-0 -53077-1 0  9999,2 52479  53.2176 178.0914 0001582  42.8442 333.8088 15.20037384  1303,6883.865,94.735,506.819,504.641,0.0
52479.0,STARLINK-3878,PAYLOAD,2022-08-06 06:00:00,15.19280303,0.000173,53.2175,176.5709,39.064,2.1754,-0.0545159999999999,-0.01065447,0.0,0 STARLINK-3878,1 52479U 22049AE  22218.25001157 -.01065447  00000-0 -54516-1 0  9991,2 52479  53.2175 176.5709 0001730  39.0640   2.1754 15.19280303 14567,6886.151,94.782,509.208,506.825,0.0
52479.0,STARLINK-3878,PAYLOAD,2022-08-06 12:09:10,15.20743549,0.0001081,53.2126,175.4181,93.7077,266.4044,-0.014449,-0.00309067,0.0,0 STARLINK-3878,1 52479U 22049AE  22218.50636628 -.00309067  00000-0 -14449-1 0  9995,2 52479  53.2126 175.4181 0001081  93.7077 266.4044 15.20743549 14605,6881.734,94.691,504.342,502.855,0.0
52479.0,STARLINK-3878,PAYLOAD,2022-08-06 21:38:00,15.19730029,0.0001479,53.2131,173.6191,76.9123,283.2039,-0.014182,-0.00295079,0.0,0 STARLINK-3878,1 52479U 22049AE  22218.90139014 -.00295079  00000-0 -14182-1 0  9997,2 52479  53.2131 173.6191 0001479  76.9123 283.2039 15.19730029 15742,6884.793000000002,94.754,507.676,505.64,0.0
52479.0,STARLINK-3878,PAYLOAD,2022-08-06 22:00:00,15.17758641,0.0001720999999999,53.2175,173.5301,42.3086,45.3713,-0.056707,-0.01074165,0.0,0 STARLINK-3878,1 52479U 22049AE  22218.91667824 -.01074165  00000-0 -56707-1 0  9994,2 52479  53.2175 173.5301 0001721  42.3086  45.3713 15.17758641 14661,6890.753000000002,94.877,513.804,511.432,0.0
52479.0,STARLINK-3878,PAYLOAD,2022-08-07 14:00:01,15.16240812,0.0001689,53.2174,170.4986,46.8958,83.5714,-0.059371,-0.01076362,0.0,0 STARLINK-3878,1 52479U 22049AE  22219.58334491 -.01076362  00000-0 -59371-1 0  9990,2 52479  53.2174 170.4986 0001689  46.8958  83.5714 15.16240812  1302,6895.351,94.972,518.381,516.052,0.0
52479.0,STARLINK-3878,PAYLOAD,2022-08-07 21:21:05,15.17682738,0.0002463,53.2134,169.123,56.7647,303.3585,-0.012685,-0.00250317,0.0,0 STARLINK-3878,1 52479U 22049AE  22219.88964177 -.00250317  00000-0 -12685-1 0  9993,2 52479  53.2134 169.1230 0002463  56.7647 303.3585 15.17682738 15897,6890.983,94.881,514.545,511.151,0.0
